NORAD_CAT_ID,OBJECT_NAME,OBJECT_TYPE,EPOCH,MEAN_MOTION,ECCENTRICITY,INCLINATION,RA_OF_ASC_NODE,ARG_OF_PERICENTER,MEAN_ANOMALY,BSTAR,MEAN_MOTION_DOT,MEAN_MOTION_DDOT,TLE_LINE0,TLE_LINE1,TLE_LINE2,SEMIMAJOR_AXIS,PERIOD,APOGEE,PERIGEE,DECAYED
49746.0,STARLINK-3233,PAYLOAD,2022-05-31 22:00:00,15.08845899,0.0002028,53.2097,214.2012,41.3212,309.1731,-0.00024751,-4.226e-05,0.0,0 STARLINK-3233,1 49746U 21115Y   22151.91667824 -.00004226  00000-0 -24751-3 0  9992,2 49746  53.2097 214.2012 0002028  41.3212 309.1731 15.08845899  1300,6917.861999999999,95.437,541.13,538.3240000000002,0.0
49746.0,STARLINK-3233,PAYLOAD,2022-06-01 06:00:00,15.08863007,0.0002015,53.2099,212.7046,43.7566,318.3313,-0.00068797,-0.00011228,0.0,0 STARLINK-3233,1 49746U 21115Y   22152.25001157 -.00011228  00000-0 -68797-3 0  9999,2 49746  53.2099 212.7046 0002015  43.7566 318.3313 15.08863007 28696,6917.81,95.436,541.069,538.281,0.0
49746.0,STARLINK-3233,PAYLOAD,2022-06-01 20:00:01,15.0888435,0.000205,53.2095,210.0858,39.2973,253.109,-0.0049681,-0.00078592,0.0,0 STARLINK-3233,1 49746U 21115Y   22152.83334491 -.00078592  00000-0 -49681-2 0  9990,2 49746  53.2095 210.0858 0002050  39.2973 253.1090 15.08884350  1306,6917.745,95.435,541.028,538.192,0.0
49746.0,STARLINK-3233,PAYLOAD,2022-06-02 16:57:58,15.0884134,0.0002083,53.2096,206.1629,41.2599,318.8551,4.792099999999999e-06,-2.12e-06,0.0,0 STARLINK-3233,1 49746U 21115Y   22153.70692178 -.00000212  00000-0  47921-5 0  9997,2 49746  53.2096 206.1629 0002083  41.2599 318.8551 15.08841340 28911,6917.876,95.437,541.182,538.3,0.0
49746.0,STARLINK-3233,PAYLOAD,2022-06-03 10:27:12,15.08843989,0.0002056,53.2091,202.8916,42.5808,317.5343,3.877e-05,3.29e-06,0.0,0 STARLINK-3233,1 49746U 21115Y   22154.43555899  .00000329  00000-0  38770-4 0  9995,2 49746  53.2091 202.8916 0002056  42.5808 317.5343 15.08843989 27910,6917.868,95.437,541.156,538.311,0.0
49746.0,STARLINK-3233,PAYLOAD,2022-06-04 02:21:03,15.08849193,0.0002085,53.209,199.9173,41.1706,318.9443,1.6779e-05,-2.1e-07,0.0,0 STARLINK-3233,1 49746U 21115Y   22155.09795441 -.00000021  00000-0  16779-4 0  9992,2 49746  53.2090 199.9173 0002085  41.1706 318.9443 15.08849193 29128,6917.852,95.437,541.16,538.275,0.0
49746.0,STARLINK-3233,PAYLOAD,2022-06-04 10:17:59,15.08846552,0.0002131,53.2106,198.4305,43.0246,317.0912,0.0001809,2.593e-05,0.0,0 STARLINK-3233,1 49746U 21115Y   22155.42915651  .00002593  00000-0  18090-3 0  9998,2 49746  53.2106 198.4305 0002131  43.0246 317.0912 15.08846552 28068,6917.86,95.437,541.2,538.251,0.0
49746.0,STARLINK-3233,PAYLOAD,2022-06-05 22:00:00,15.08812263,0.0001963,53.2104,191.7521,41.1082,123.3614,0.0018356,0.00029024,0.0,0 STARLINK-3233,1 49746U 21115Y   22156.91667824  .00029024  00000-0  18356-2 0  9991,2 49746  53.2104 191.7521 0001963  41.1082 123.3614 15.08812263 29397,6917.965,95.439,541.188,538.472,0.0
49746.0,STARLINK-3233,PAYLOAD,2022-06-06 14:00:01,15.08819014,0.0002234,53.2105,188.7608,38.1102,149.5247,0.0019567,0.00030973,0.0,0 STARLINK-3233,1 49746U 21115Y   22157.58334491  .00030973  00000-0  19567-2 0  9996,2 49746  53.2105 188.7608 0002234  38.1102 149.5247 15.08819014 29495,6917.945,95.439,541.355,538.264,0.0
49746.0,STARLINK-3233,PAYLOAD,2022-06-06 19:31:52,15.08841728,0.0002067,53.2125,187.7238,43.2657,316.8497,-1.4609e-05,-5.21e-06,0.0,0 STARLINK-3233,1 49746U 21115Y   22157.81379973 -.00000521  00000-0 -14609-4 0  9998,2 49746  53.2125 187.7238 0002067  43.2657 316.8497 15.08841728 28426,6917.875,95.437,541.17,538.31,0.0
49746.0,STARLINK-3233,PAYLOAD,2022-06-07 11:25:43,15.08836956,0.0002122,53.2123,184.7501,43.8339,316.2821,0.00010167,1.33e-05,0.0,0 STARLINK-3233,1 49746U 21115Y   22158.47620031  .00001330  00000-0  10167-3 0  9996,2 49746  53.2123 184.7501 0002122  43.8339 316.2821 15.08836956 29635,6917.89,95.438,541.2230000000002,538.2869999999998,0.0
49746.0,STARLINK-3233,PAYLOAD,2022-06-07 19:22:39,15.08839194,0.0002149,53.2122,183.2633,43.9519,316.1644,0.0001021,1.337e-05,0.0,0 STARLINK-3233,1 49746U 21115Y   22158.80739936  .00001337  00000-0  10210-3 0  9994,2 49746  53.2122 183.2633 0002149  43.9519 316.1644 15.08839194 28575,6917.8830000000025,95.438,541.235,538.261,0.0
49746.0,STARLINK-3233,PAYLOAD,2022-06-08 08:05:44,15.08842712,0.0002183,53.212,180.8842,44.4613,315.6554,0.00011313,1.513e-05,0.0,0 STARLINK-3233,1 49746U 21115Y   22159.33731745  .00001513  00000-0  11313-3 0  9994,2 49746  53.2120 180.8842 0002183  44.4613 315.6554 15.08842712 28650,6917.871999999999,95.437,541.247,538.227,0.0
49746.0,STARLINK-3233,PAYLOAD,2022-06-08 23:59:35,15.08846077,0.000223,53.2119,177.9104,44.5882,315.5289,0.00011533,1.548e-05,0.0,0 STARLINK-3233,1 49746U 21115Y   22159.99971402  .00001548  00000-0  11533-3 0  9994,2 49746  53.2119 177.9104 0002230  44.5882 315.5289 15.08846077 29864,6917.861999999999,95.437,541.269,538.184,0.0
49746.0,STARLINK-3233,PAYLOAD,2022-06-09 11:07:17,15.088441199999998,0.0002247,53.2128,175.8283,47.6796,312.4387,7.771e-05,9.49e-06,0.0,0 STARLINK-3233,1 49746U 21115Y   22160.46339521  .00000949  00000-0  77710-4 0  9992,2 49746  53.2128 175.8283 0002247  47.6796 312.4387 15.08844120 28822,6917.868,95.437,541.2869999999998,538.178,0.0
49746.0,STARLINK-3233,PAYLOAD,2022-06-09 17:28:50,15.08831483,0.0002255,53.2126,174.6395,45.2308,314.8867,-4.692e-05,-1.035e-05,0.0,0 STARLINK-3233,1 49746U 21115Y   22160.72836734 -.00001035  00000-0 -46920-4 0  9997,2 49746  53.2126 174.6395 0002255  45.2308 314.8867 15.08831483 29977,6917.906,95.438,541.331,538.211,0.0
49746.0,STARLINK-3233,PAYLOAD,2022-06-10 07:47:19,15.08834632,0.0002251,53.2122,171.9626,45.0622,315.0552,-2.3708e-05,-6.66e-06,0.0,0 STARLINK-3233,1 49746U 21115Y   22161.32452646 -.00000666  00000-0 -23708-4 0  9998,2 49746  53.2122 171.9626 0002251  45.0622 315.0552 15.08834632 28953,6917.897,95.438,541.319,538.205,0.0
49746.0,STARLINK-3233,PAYLOAD,2022-06-10 17:19:37,15.08836965,0.0002258,53.2123,170.1784,44.5998,315.5176,-5.0106e-05,-1.086e-05,0.0,0 STARLINK-3233,1 49746U 21115Y   22161.72196665 -.00001086  00000-0 -50106-4 0  9997,2 49746  53.2123 170.1784 0002258  44.5998 315.5176 15.08836965 30127,6917.89,95.438,541.317,538.193,0.0
49746.0,STARLINK-3233,PAYLOAD,2022-06-11 04:27:22,15.08736122,0.0002984,53.2123,168.0965,58.2596,301.8686,0.0014144,0.00022231,0.0,0 STARLINK-3233,1 49746U 21115Y   22162.18567460  .00022231  00000-0  14144-2 0  9996,2 49746  53.2123 168.0965 0002984  58.2596 301.8686 15.08736122 30191,6918.198,95.444,542.127,537.999,0.0
49746.0,STARLINK-3233,PAYLOAD,2022-06-11 07:38:05,15.08856979,0.0002147,53.2123,167.5015,46.6343,313.4827,-0.00030229,-5.098e-05,0.0,0 STARLINK-3233,1 49746U 21115Y   22162.31812094 -.00005098  00000-0 -30229-3 0  9994,2 49746  53.2123 167.5015 0002147  46.6343 313.4827 15.08856979 30215,6917.828,95.436,541.179,538.2080000000002,0.0
49746.0,STARLINK-3233,PAYLOAD,2022-06-12 07:28:53,15.08833404,0.0002342,53.2124,163.0407,46.4395,313.6792,0.00010208,1.336e-05,0.0,0 STARLINK-3233,1 49746U 21115Y   22163.31173346  .00001336  00000-0  10208-3 0  9999,2 49746  53.2124 163.0407 0002342  46.4395 313.6792 15.08833404 30361,6917.901,95.438,541.386,538.145,0.0
49746.0,STARLINK-3233,PAYLOAD,2022-06-12 17:01:12,15.088370499999998,0.0002345,53.2122,161.2564,47.2776,312.8414,0.00011928,1.6100000000000002e-05,0.0,0 STARLINK-3233,1 49746U 21115Y   22163.70917262  .00001610  00000-0  11928-3 0  9990,2 49746  53.2122 161.2564 0002345  47.2776 312.8414 15.08837050 29314,6917.889,95.438,541.377,538.132,0.0
49746.0,STARLINK-3233,PAYLOAD,2022-06-13 08:55:03,15.08843431,0.0002413,53.2125,158.2825,48.434,311.6859,0.00015266,2.142e-05,0.0,0 STARLINK-3233,1 49746U 21115Y   22164.37157039  .00002142  00000-0  15266-3 0  9992,2 49746  53.2125 158.2825 0002413  48.4340 311.6859 15.08843431 30524,6917.87,95.437,541.404,538.066,0.0
49746.0,STARLINK-3233,PAYLOAD,2022-06-13 16:51:59,15.08847085,0.0002426,53.2129,156.7958,49.2753,310.845,0.00017357,2.476e-05,0.0,0 STARLINK-3233,1 49746U 21115Y   22164.70276754  .00002476  00000-0  17357-3 0  9998,2 49746  53.2129 156.7958 0002426  49.2753 310.8450 15.08847085 29467,6917.859,95.437,541.4019999999998,538.045,0.0
49746.0,STARLINK-3233,PAYLOAD,2022-06-14 08:45:50,15.08854318,0.0002503,53.2128,153.8222,49.5661,310.5549,0.00028696,4.283e-05,0.0,0 STARLINK-3233,1 49746U 21115Y   22165.36516472  .00004283  00000-0  28696-3 0  9991,2 49746  53.2128 153.8222 0002503  49.5661 310.5549 15.08854318 29569,6917.837,95.437,541.433,537.97,0.0
49746.0,STARLINK-3233,PAYLOAD,2022-06-14 16:42:45,15.0885781,0.0002515,53.213,152.3352,50.2235,309.8978,0.00030149,4.516e-05,0.0,0 STARLINK-3233,1 49746U 21115Y   22165.69636104  .00004516  00000-0  30149-3 0  9997,2 49746  53.2130 152.3352 0002515  50.2235 309.8978 15.08857810 30726,6917.826,95.436,541.431,537.951,0.0
49746.0,STARLINK-3233,PAYLOAD,2022-06-15 05:25:51,15.0884184,0.0002563,53.2141,149.9564,55.9343,304.1892,1.3688e-05,-7.1e-07,0.0,0 STARLINK-3233,1 49746U 21115Y   22166.22628633 -.00000071  00000-0  13688-4 0  9998,2 49746  53.2141 149.9564 0002563  55.9343 304.1892 15.08841840 30808,6917.875,95.437,541.513,537.967,0.0
49746.0,STARLINK-3233,PAYLOAD,2022-06-15 07:01:14,15.08840622,0.0002527,53.215,149.6593,54.5706,305.5521,1.3904e-05,-6.7e-07,0.0,0 STARLINK-3233,1 49746U 21115Y   22166.29252894 -.00000067  00000-0  13904-4 0  9993,2 49746  53.2150 149.6593 0002527  54.5706 305.5521 15.08840622 29703,6917.878000000002,95.438,541.492,537.995,0.0
49746.0,STARLINK-3233,PAYLOAD,2022-06-15 22:55:05,15.08844551,0.0002517,53.2154,146.6848,58.0245,302.0991,0.0001053,1.388e-05,0.0,0 STARLINK-3233,1 49746U 21115Y   22166.95492178  .00001388  00000-0  10530-3 0  9994,2 49746  53.2154 146.6848 0002517  58.0245 302.0991 15.08844551 29802,6917.866,95.437,541.4730000000002,537.99,0.0
